{
  "norad_id": 44744,
  "name": "STARLINK-1039",
  "history": [
    {
      "epoch": "2026-03-28T09:20:54.377664Z",
      "apogee_km": 496.9821834826289,
      "perigee_km": 495.5048791064528,
      "latitude_deg": -2.333324014581942e-05,
      "longitude_deg": 163.0038465079228,
      "height_km": 496.6134333437285,
      "semi_major_axis_km": 6874.380531294541,
      "eccentricity": 0.00010745,
      "inclination_deg": 53.0588,
      "raan_deg": 129.0411,
      "arg_perigee_deg": 314.432,
      "mean_anomaly_deg": 45.6588,
      "mean_motion_rev_day": 15.23184139
    }
  ]
}