{"fetched_at":"2026-03-29T16:36:15Z","count":15609,"tles":[{"name":"STARLINK-1039","line1":"1 44744U 19074AH  26087.38951826  .00038165  00000+0  15992-2 0  9999","line2":"2 44744  53.0588 129.0411 0001074 314.4320  45.6588 15.23184139351205","category":"Starlink"}]}